{
  "type": "FeatureCollection",
  "features": [
    {
      "type": "Feature",
      "geometry": {
        "type": "LineString",
        "coordinates": [
          [
            86.6,
            13.6
          ],
          [
            87.2,
            13.9
          ],
          [
            87.7,
            14.3
          ],
          [
            88.2,
            14.7
          ],
          [
            88.6,
            15.2
          ],
          [
            89.0,
            15.5
          ],
          [
            89.3,
            15.9
          ],
          [
            89.4,
            16.1
          ],
          [
            89.6,
            16.4
          ],
          [
            89.7,
            16.7
          ],
          [
            89.9,
            17.0
          ],
          [
            89.9,
            17.2
          ],
          [
            90.0,
            17.6
          ],
          [
            89.8,
            17.9
          ],
          [
            89.6,
            18.2
          ],
          [
            89.5,
            18.4
          ],
          [
            89.3,
            18.7
          ],
          [
            89.2,
            18.9
          ],
          [
            89.2,
            19.2
          ],
          [
            89.2,
            19.4
          ],
          [
            89.2,
            19.6
          ],
          [
            89.1,
            19.9
          ],
          [
            89.1,
            20.3
          ],
          [
            89.1,
            20.6
          ],
          [
            89.1,
            21.2
          ],
          [
            89.0,
            21.5
          ],
          [
            89.0,
            21.6
          ],
          [
            88.9,
            22.0
          ],
          [
            88.9,
            22.2
          ],
          [
            89.0,
            22.6
          ],
          [
            89.1,
            22.8
          ],
          [
            89.1,
            23.1
          ],
          [
            89.3,
            23.3
          ],
          [
            89.6,
            23.6
          ],
          [
            90.1,
            23.8
          ],
          [
            90.5,
            24.1
          ],
          [
            90.8,
            24.3
          ],
          [
            91.1,
            24.5
          ],
          [
            91.5,
            24.7
          ],
          [
            91.8,
            25.1
          ]
        ]
      },
      "properties": {
        "name": "REMAL",
        "season": "2024",
        "source": "IBTrACS v04r01",
        "wind_units": "knots"
      }
    },
    {
      "type": "Feature",
      "geometry": {
        "type": "Point",
        "coordinates": [
          86.6,
          13.6
        ]
      },
      "properties": {
        "iso_time": "2024-05-23 12:00:00",
        "usa_wind_kt": 15.0
      }
    },
    {
      "type": "Feature",
      "geometry": {
        "type": "Point",
        "coordinates": [
          87.2,
          13.9
        ]
      },
      "properties": {
        "iso_time": "2024-05-23 15:00:00",
        "usa_wind_kt": 15.0
      }
    },
    {
      "type": "Feature",
      "geometry": {
        "type": "Point",
        "coordinates": [
          87.7,
          14.3
        ]
      },
      "properties": {
        "iso_time": "2024-05-23 18:00:00",
        "usa_wind_kt": 15.0
      }
    },
    {
      "type": "Feature",
      "geometry": {
        "type": "Point",
        "coordinates": [
          88.2,
          14.7
        ]
      },
      "properties": {
        "iso_time": "2024-05-23 21:00:00",
        "usa_wind_kt": 18.0
      }
    },
    {
      "type": "Feature",
      "geometry": {
        "type": "Point",
        "coordinates": [
          88.6,
          15.2
        ]
      },
      "properties": {
        "iso_time": "2024-05-24 00:00:00",
        "usa_wind_kt": 20.0
      }
    },
    {
      "type": "Feature",
      "geometry": {
        "type": "Point",
        "coordinates": [
          89.0,
          15.5
        ]
      },
      "properties": {
        "iso_time": "2024-05-24 03:00:00",
        "usa_wind_kt": 23.0
      }
    },
    {
      "type": "Feature",
      "geometry": {
        "type": "Point",
        "coordinates": [
          89.3,
          15.9
        ]
      },
      "properties": {
        "iso_time": "2024-05-24 06:00:00",
        "usa_wind_kt": 25.0
      }
    },
    {
      "type": "Feature",
      "geometry": {
        "type": "Point",
        "coordinates": [
          89.4,
          16.1
        ]
      },
      "properties": {
        "iso_time": "2024-05-24 09:00:00",
        "usa_wind_kt": 25.0
      }
    },
    {
      "type": "Feature",
      "geometry": {
        "type": "Point",
        "coordinates": [
          89.6,
          16.4
        ]
      },
      "properties": {
        "iso_time": "2024-05-24 12:00:00",
        "usa_wind_kt": 25.0
      }
    },
    {
      "type": "Feature",
      "geometry": {
        "type": "Point",
        "coordinates": [
          89.7,
          16.7
        ]
      },
      "properties": {
        "iso_time": "2024-05-24 15:00:00",
        "usa_wind_kt": 25.0
      }
    },
    {
      "type": "Feature",
      "geometry": {
        "type": "Point",
        "coordinates": [
          89.9,
          17.0
        ]
      },
      "properties": {
        "iso_time": "2024-05-24 18:00:00",
        "usa_wind_kt": 25.0
      }
    },
    {
      "type": "Feature",
      "geometry": {
        "type": "Point",
        "coordinates": [
          89.9,
          17.2
        ]
      },
      "properties": {
        "iso_time": "2024-05-24 21:00:00",
        "usa_wind_kt": 25.0
      }
    },
    {
      "type": "Feature",
      "geometry": {
        "type": "Point",
        "coordinates": [
          90.0,
          17.6
        ]
      },
      "properties": {
        "iso_time": "2024-05-25 00:00:00",
        "usa_wind_kt": 25.0
      }
    },
    {
      "type": "Feature",
      "geometry": {
        "type": "Point",
        "coordinates": [
          89.8,
          17.9
        ]
      },
      "properties": {
        "iso_time": "2024-05-25 03:00:00",
        "usa_wind_kt": 25.0
      }
    },
    {
      "type": "Feature",
      "geometry": {
        "type": "Point",
        "coordinates": [
          89.6,
          18.2
        ]
      },
      "properties": {
        "iso_time": "2024-05-25 06:00:00",
        "usa_wind_kt": 25.0
      }
    },
    {
      "type": "Feature",
      "geometry": {
        "type": "Point",
        "coordinates": [
          89.5,
          18.4
        ]
      },
      "properties": {
        "iso_time": "2024-05-25 09:00:00",
        "usa_wind_kt": 28.0
      }
    },
    {
      "type": "Feature",
      "geometry": {
        "type": "Point",
        "coordinates": [
          89.3,
          18.7
        ]
      },
      "properties": {
        "iso_time": "2024-05-25 12:00:00",
        "usa_wind_kt": 30.0
      }
    },
    {
      "type": "Feature",
      "geometry": {
        "type": "Point",
        "coordinates": [
          89.2,
          18.9
        ]
      },
      "properties": {
        "iso_time": "2024-05-25 15:00:00",
        "usa_wind_kt": 30.0
      }
    },
    {
      "type": "Feature",
      "geometry": {
        "type": "Point",
        "coordinates": [
          89.2,
          19.2
        ]
      },
      "properties": {
        "iso_time": "2024-05-25 18:00:00",
        "usa_wind_kt": 30.0
      }
    },
    {
      "type": "Feature",
      "geometry": {
        "type": "Point",
        "coordinates": [
          89.2,
          19.4
        ]
      },
      "properties": {
        "iso_time": "2024-05-25 21:00:00",
        "usa_wind_kt": 35.0
      }
    },
    {
      "type": "Feature",
      "geometry": {
        "type": "Point",
        "coordinates": [
          89.2,
          19.6
        ]
      },
      "properties": {
        "iso_time": "2024-05-26 00:00:00",
        "usa_wind_kt": 40.0
      }
    },
    {
      "type": "Feature",
      "geometry": {
        "type": "Point",
        "coordinates": [
          89.1,
          19.9
        ]
      },
      "properties": {
        "iso_time": "2024-05-26 03:00:00",
        "usa_wind_kt": 45.0
      }
    },
    {
      "type": "Feature",
      "geometry": {
        "type": "Point",
        "coordinates": [
          89.1,
          20.3
        ]
      },
      "properties": {
        "iso_time": "2024-05-26 06:00:00",
        "usa_wind_kt": 50.0
      }
    },
    {
      "type": "Feature",
      "geometry": {
        "type": "Point",
        "coordinates": [
          89.1,
          20.6
        ]
      },
      "properties": {
        "iso_time": "2024-05-26 09:00:00",
        "usa_wind_kt": 53.0
      }
    },
    {
      "type": "Feature",
      "geometry": {
        "type": "Point",
        "coordinates": [
          89.1,
          21.2
        ]
      },
      "properties": {
        "iso_time": "2024-05-26 12:00:00",
        "usa_wind_kt": 55.0
      }
    },
    {
      "type": "Feature",
      "geometry": {
        "type": "Point",
        "coordinates": [
          89.0,
          21.5
        ]
      },
      "properties": {
        "iso_time": "2024-05-26 14:00:00",
        "usa_wind_kt": 60.0
      }
    },
    {
      "type": "Feature",
      "geometry": {
        "type": "Point",
        "coordinates": [
          89.0,
          21.6
        ]
      },
      "properties": {
        "iso_time": "2024-05-26 15:00:00",
        "usa_wind_kt": 59.0
      }
    },
    {
      "type": "Feature",
      "geometry": {
        "type": "Point",
        "coordinates": [
          88.9,
          22.0
        ]
      },
      "properties": {
        "iso_time": "2024-05-26 18:00:00",
        "usa_wind_kt": 55.0
      }
    },
    {
      "type": "Feature",
      "geometry": {
        "type": "Point",
        "coordinates": [
          88.9,
          22.2
        ]
      },
      "properties": {
        "iso_time": "2024-05-26 21:00:00",
        "usa_wind_kt": 53.0
      }
    },
    {
      "type": "Feature",
      "geometry": {
        "type": "Point",
        "coordinates": [
          89.0,
          22.6
        ]
      },
      "properties": {
        "iso_time": "2024-05-27 00:00:00",
        "usa_wind_kt": 50.0
      }
    },
    {
      "type": "Feature",
      "geometry": {
        "type": "Point",
        "coordinates": [
          89.1,
          22.8
        ]
      },
      "properties": {
        "iso_time": "2024-05-27 03:00:00",
        "usa_wind_kt": 48.0
      }
    },
    {
      "type": "Feature",
      "geometry": {
        "type": "Point",
        "coordinates": [
          89.1,
          23.1
        ]
      },
      "properties": {
        "iso_time": "2024-05-27 06:00:00",
        "usa_wind_kt": 45.0
      }
    },
    {
      "type": "Feature",
      "geometry": {
        "type": "Point",
        "coordinates": [
          89.3,
          23.3
        ]
      },
      "properties": {
        "iso_time": "2024-05-27 09:00:00",
        "usa_wind_kt": 40.0
      }
    },
    {
      "type": "Feature",
      "geometry": {
        "type": "Point",
        "coordinates": [
          89.6,
          23.6
        ]
      },
      "properties": {
        "iso_time": "2024-05-27 12:00:00",
        "usa_wind_kt": 35.0
      }
    },
    {
      "type": "Feature",
      "geometry": {
        "type": "Point",
        "coordinates": [
          90.1,
          23.8
        ]
      },
      "properties": {
        "iso_time": "2024-05-27 15:00:00",
        "usa_wind_kt": 33.0
      }
    },
    {
      "type": "Feature",
      "geometry": {
        "type": "Point",
        "coordinates": [
          90.5,
          24.1
        ]
      },
      "properties": {
        "iso_time": "2024-05-27 18:00:00",
        "usa_wind_kt": 30.0
      }
    },
    {
      "type": "Feature",
      "geometry": {
        "type": "Point",
        "coordinates": [
          90.8,
          24.3
        ]
      },
      "properties": {
        "iso_time": "2024-05-27 21:00:00",
        "usa_wind_kt": 25.0
      }
    },
    {
      "type": "Feature",
      "geometry": {
        "type": "Point",
        "coordinates": [
          91.1,
          24.5
        ]
      },
      "properties": {
        "iso_time": "2024-05-28 00:00:00",
        "usa_wind_kt": 20.0
      }
    },
    {
      "type": "Feature",
      "geometry": {
        "type": "Point",
        "coordinates": [
          91.5,
          24.7
        ]
      },
      "properties": {
        "iso_time": "2024-05-28 03:00:00",
        "usa_wind_kt": 0.0
      }
    },
    {
      "type": "Feature",
      "geometry": {
        "type": "Point",
        "coordinates": [
          91.8,
          25.1
        ]
      },
      "properties": {
        "iso_time": "2024-05-28 06:00:00",
        "usa_wind_kt": 0.0
      }
    }
  ]
}
