{
  "type": "FeatureCollection",
  "features": [
    {
      "type": "Feature",
      "geometry": {
        "type": "Point",
        "coordinates": [
          88.4503644,
          22.5803249
        ]
      },
      "properties": {
        "name": "HIDCO Sub Station",
        "power": "substation",
        "osm_id": 2464357960
      }
    },
    {
      "type": "Feature",
      "geometry": {
        "type": "Point",
        "coordinates": [
          88.3932942,
          22.529975
        ]
      },
      "properties": {
        "alt_name": "Kasba 220 KV Sub Station",
        "building": "yes",
        "name": "Kasba 220 KV Sub Station",
        "power": "substation",
        "substation": "minor_distribution",
        "voltage": "220",
        "osm_id": 13611046362
      }
    },
    {
      "type": "Feature",
      "geometry": {
        "type": "LineString",
        "coordinates": [
          [
            87.8674813,
            22.4125809
          ],
          [
            87.8650831,
            22.4149476
          ],
          [
            87.8649826,
            22.4150468
          ],
          [
            87.865046,
            22.4158954
          ],
          [
            87.8651893,
            22.4158648
          ],
          [
            87.8654926,
            22.4158699
          ],
          [
            87.8656194,
            22.4159311
          ],
          [
            87.8657903,
            22.4168357
          ],
          [
            87.8657793,
            22.4169886
          ],
          [
            87.8657048,
            22.4171823
          ],
          [
            87.8657186,
            22.4173556
          ],
          [
            87.8658592,
            22.4179417
          ],
          [
            87.8656442,
            22.4179851
          ],
          [
            87.8656911,
            22.4183953
          ],
          [
            87.8652968,
            22.4185049
          ],
          [
            87.8642934,
            22.4188642
          ],
          [
            87.8642576,
            22.41877
          ],
          [
            87.8641142,
            22.4187266
          ],
          [
            87.8637794,
            22.4188239
          ],
          [
            87.8642012,
            22.4192062
          ],
          [
            87.8642894,
            22.4193514
          ],
          [
            87.8644024,
            22.4193667
          ],
          [
            87.8645981,
            22.419512
          ],
          [
            87.8649014,
            22.419568
          ],
          [
            87.8650089,
            22.4196801
          ],
          [
            87.8652349,
            22.4197388
          ],
          [
            87.8652873,
            22.420042
          ],
          [
            87.8670034,
            22.4215023
          ],
          [
            87.8676194,
            22.4212861
          ],
          [
            87.867748,
            22.4212861
          ],
          [
            87.868173,
            22.4211059
          ],
          [
            87.8685121,
            22.4211671
          ],
          [
            87.8688435,
            22.4211059
          ],
          [
            87.8690579,
            22.421005
          ],
          [
            87.8691983,
            22.4210626
          ],
          [
            87.8696783,
            22.4220517
          ],
          [
            87.8697465,
            22.422095
          ],
          [
            87.8705594,
            22.4221256
          ],
          [
            87.870614,
            22.422277
          ],
          [
            87.8708089,
            22.4236032
          ],
          [
            87.8710915,
            22.4237455
          ],
          [
            87.8712221,
            22.4238212
          ],
          [
            87.8738244,
            22.4252393
          ],
          [
            87.8738381,
            22.425427
          ],
          [
            87.8752826,
            22.4253378
          ],
          [
            87.8752906,
            22.4253671
          ],
          [
            87.8754212,
            22.4253843
          ],
          [
            87.8755772,
            22.4254518
          ],
          [
            87.8757516,
            22.4252969
          ],
          [
            87.875775,
            22.4252086
          ],
          [
            87.8758608,
            22.4252086
          ],
          [
            87.8759446,
            22.4248194
          ],
          [
            87.8761238,
            22.4229824
          ],
          [
            87.8763609,
            22.4229238
          ],
          [
            87.8766806,
            22.4226817
          ],
          [
            87.8769673,
            22.4226154
          ],
          [
            87.8771989,
            22.4226562
          ],
          [
            87.8779156,
            22.4217388
          ],
          [
            87.8782023,
            22.4217821
          ],
          [
            87.8783016,
            22.4217286
          ],
          [
            87.8784063,
            22.421224
          ],
          [
            87.8784174,
            22.4207067
          ],
          [
            87.8782492,
            22.4206481
          ],
          [
            87.8782492,
            22.4205386
          ],
          [
            87.8784449,
            22.4204876
          ],
          [
            87.8787113,
            22.4175466
          ],
          [
            87.8785164,
            22.4175033
          ],
          [
            87.8784628,
            22.4170856
          ],
          [
            87.8787201,
            22.4170531
          ],
          [
            87.878846,
            22.4154293
          ],
          [
            87.8779198,
            22.4143538
          ],
          [
            87.8777185,
            22.4141958
          ],
          [
            87.876456,
            22.4138875
          ],
          [
            87.8764201,
            22.413286
          ],
          [
            87.8765083,
            22.4130643
          ],
          [
            87.8765773,
            22.4130146
          ],
          [
            87.8765304,
            22.4127662
          ],
          [
            87.876427,
            22.4126935
          ],
          [
            87.8764746,
            22.4116492
          ],
          [
            87.87642,
            22.4115825
          ],
          [
            87.8764103,
            22.4114617
          ],
          [
            87.8765331,
            22.4113464
          ],
          [
            87.8765263,
            22.4101808
          ],
          [
            87.8746082,
            22.4105952
          ],
          [
            87.8745241,
            22.4105725
          ],
          [
            87.8740224,
            22.4106808
          ],
          [
            87.87401,
            22.4107165
          ],
          [
            87.8728654,
            22.410928
          ],
          [
            87.8716187,
            22.4110455
          ],
          [
            87.8710202,
            22.4111663
          ],
          [
            87.8707084,
            22.4112978
          ],
          [
            87.8701333,
            22.4116402
          ],
          [
            87.8698819,
            22.4116546
          ],
          [
            87.8687399,
            22.4120952
          ],
          [
            87.8674813,
            22.4125809
          ]
        ]
      },
      "properties": {
        "barrier": "wall",
        "landuse": "industrial",
        "name": "Kolaghat Power Plant",
        "operator": "West Bengal Power Development Corporation",
        "plant:method": "combustion",
        "plant:output:electricity": "840 MW",
        "plant:source": "coal",
        "power": "plant",
        "source": "bing",
        "wikidata": "Q15238994",
        "osm_id": 84517895
      }
    },
    {
      "type": "Feature",
      "geometry": {
        "type": "LineString",
        "coordinates": [
          [
            88.3493122,
            22.4975333
          ],
          [
            88.3492639,
            22.497392
          ],
          [
            88.3488616,
            22.4974069
          ],
          [
            88.3488508,
            22.4968369
          ],
          [
            88.349441,
            22.4967675
          ],
          [
            88.3496127,
            22.4970352
          ],
          [
            88.3497844,
            22.4972582
          ],
          [
            88.3499265,
            22.4973994
          ],
          [
            88.3497245,
            22.4974719
          ],
          [
            88.3494329,
            22.4975134
          ],
          [
            88.3493122,
            22.4975333
          ]
        ]
      },
      "properties": {
        "power": "substation",
        "osm_id": 118681520
      }
    },
    {
      "type": "Feature",
      "geometry": {
        "type": "LineString",
        "coordinates": [
          [
            88.0865315,
            22.0644309
          ],
          [
            88.0874139,
            22.0646298
          ],
          [
            88.0883179,
            22.0647914
          ],
          [
            88.0884008,
            22.0651247
          ],
          [
            88.0880228,
            22.0668794
          ],
          [
            88.0870948,
            22.0667128
          ],
          [
            88.0866957,
            22.0666427
          ],
          [
            88.0860621,
            22.0665314
          ],
          [
            88.0865315,
            22.0644309
          ]
        ]
      },
      "properties": {
        "name": "Haldia Sub Station",
        "power": "substation",
        "substation": "transmission",
        "voltage": "220000;132000",
        "osm_id": 148895799
      }
    },
    {
      "type": "Feature",
      "geometry": {
        "type": "LineString",
        "coordinates": [
          [
            87.9112952,
            22.2814348
          ],
          [
            87.9095636,
            22.2818317
          ],
          [
            87.9098182,
            22.2824666
          ],
          [
            87.909912,
            22.2824468
          ],
          [
            87.9099737,
            22.2825088
          ],
          [
            87.9100622,
            22.2827295
          ],
          [
            87.9104803,
            22.2826278
          ],
          [
            87.9106894,
            22.2830569
          ],
          [
            87.9107564,
            22.2833397
          ],
          [
            87.9118259,
            22.2833744
          ],
          [
            87.9118125,
            22.2831611
          ],
          [
            87.9116356,
            22.2826477
          ],
          [
            87.9112952,
            22.2814348
          ]
        ]
      },
      "properties": {
        "name": "Tamluk",
        "power": "substation",
        "voltage": "132000",
        "osm_id": 148895800
      }
    },
    {
      "type": "Feature",
      "geometry": {
        "type": "LineString",
        "coordinates": [
          [
            87.8702126,
            22.4293699
          ],
          [
            87.8699503,
            22.4295954
          ],
          [
            87.8697325,
            22.4300174
          ],
          [
            87.8698112,
            22.4308613
          ],
          [
            87.8712778,
            22.4307764
          ],
          [
            87.8712778,
            22.4307328
          ],
          [
            87.8722958,
            22.4307061
          ],
          [
            87.8723089,
            22.4298985
          ],
          [
            87.8719206,
            22.4294863
          ],
          [
            87.8713145,
            22.429479
          ],
          [
            87.8713198,
            22.4293044
          ],
          [
            87.8702126,
            22.4293699
          ]
        ]
      },
      "properties": {
        "barrier": "wall",
        "power": "substation",
        "voltage": "132000",
        "osm_id": 148895803
      }
    },
    {
      "type": "Feature",
      "geometry": {
        "type": "LineString",
        "coordinates": [
          [
            88.1780197,
            22.0920446
          ],
          [
            88.1784197,
            22.0919217
          ],
          [
            88.1780728,
            22.0909101
          ],
          [
            88.1777278,
            22.0910031
          ],
          [
            88.1780197,
            22.0920446
          ]
        ]
      },
      "properties": {
        "power": "substation",
        "voltage": "132000",
        "osm_id": 148895816
      }
    },
    {
      "type": "Feature",
      "geometry": {
        "type": "LineString",
        "coordinates": [
          [
            88.1020235,
            22.0682614
          ],
          [
            88.1024301,
            22.0684216
          ],
          [
            88.1026661,
            22.0678897
          ],
          [
            88.1022452,
            22.0677485
          ],
          [
            88.1020235,
            22.0682614
          ]
        ]
      },
      "properties": {
        "power": "substation",
        "voltage": "132000",
        "osm_id": 148895818
      }
    },
    {
      "type": "Feature",
      "geometry": {
        "type": "LineString",
        "coordinates": [
          [
            88.0917723,
            22.0557508
          ],
          [
            88.0934596,
            22.0561757
          ],
          [
            88.0937231,
            22.0552769
          ],
          [
            88.0938858,
            22.054722
          ],
          [
            88.0928595,
            22.0544635
          ],
          [
            88.0921818,
            22.0542928
          ],
          [
            88.0920077,
            22.0548865
          ],
          [
            88.0917886,
            22.0548313
          ],
          [
            88.0915517,
            22.0556396
          ],
          [
            88.0917875,
            22.055699
          ],
          [
            88.0917723,
            22.0557508
          ]
        ]
      },
      "properties": {
        "power": "substation",
        "substation": "distribution",
        "voltage": "132000",
        "osm_id": 148895822
      }
    },
    {
      "type": "Feature",
      "geometry": {
        "type": "LineString",
        "coordinates": [
          [
            88.0790145,
            22.4776373
          ],
          [
            88.0789557,
            22.4790774
          ],
          [
            88.0813649,
            22.4785681
          ],
          [
            88.0812697,
            22.4770659
          ],
          [
            88.0793335,
            22.4774745
          ],
          [
            88.0793391,
            22.4775313
          ],
          [
            88.0790145,
            22.4776373
          ]
        ]
      },
      "properties": {
        "name": "Uluberia",
        "power": "substation",
        "voltage": "132000",
        "osm_id": 148897776
      }
    },
    {
      "type": "Feature",
      "geometry": {
        "type": "LineString",
        "coordinates": [
          [
            88.2955606,
            22.566071
          ],
          [
            88.2955636,
            22.5665893
          ],
          [
            88.2960056,
            22.5674485
          ],
          [
            88.2959497,
            22.5674736
          ],
          [
            88.2960373,
            22.5676115
          ],
          [
            88.295989,
            22.5676464
          ],
          [
            88.2968521,
            22.569122
          ],
          [
            88.2980215,
            22.5685451
          ],
          [
            88.2972124,
            22.5671986
          ],
          [
            88.2962587,
            22.5652031
          ],
          [
            88.2954951,
            22.5654957
          ],
          [
            88.2955606,
            22.566071
          ]
        ]
      },
      "properties": {
        "name": "Howrah",
        "power": "substation",
        "substation": "transmission",
        "voltage": "220000;132000",
        "osm_id": 149063516
      }
    },
    {
      "type": "Feature",
      "geometry": {
        "type": "LineString",
        "coordinates": [
          [
            88.2933795,
            22.567186
          ],
          [
            88.295441,
            22.5665435
          ],
          [
            88.2950036,
            22.5652862
          ],
          [
            88.2929143,
            22.5659208
          ],
          [
            88.2933795,
            22.567186
          ]
        ]
      },
      "properties": {
        "power": "substation",
        "voltage": "132000",
        "osm_id": 149063558
      }
    },
    {
      "type": "Feature",
      "geometry": {
        "type": "LineString",
        "coordinates": [
          [
            88.1042787,
            22.2807226
          ],
          [
            88.1047185,
            22.280673
          ],
          [
            88.1052421,
            22.2806658
          ],
          [
            88.1054848,
            22.280587
          ],
          [
            88.1052829,
            22.2800736
          ],
          [
            88.1057734,
            22.2799085
          ],
          [
            88.1052168,
            22.2784928
          ],
          [
            88.104721,
            22.2786598
          ],
          [
            88.1042472,
            22.2788193
          ],
          [
            88.104422,
            22.2792639
          ],
          [
            88.1037889,
            22.279477
          ],
          [
            88.1042787,
            22.2807226
          ]
        ]
      },
      "properties": {
        "name": "Falta",
        "power": "substation",
        "voltage": "132000",
        "osm_id": 149250550
      }
    },
    {
      "type": "Feature",
      "geometry": {
        "type": "LineString",
        "coordinates": [
          [
            88.4319144,
            22.5810666
          ],
          [
            88.4320971,
            22.5808414
          ],
          [
            88.4323763,
            22.5809823
          ],
          [
            88.4322032,
            22.5812394
          ],
          [
            88.4327984,
            22.5815957
          ],
          [
            88.4333623,
            22.5825449
          ],
          [
            88.433121,
            22.5828341
          ],
          [
            88.4312948,
            22.581765
          ],
          [
            88.4315547,
            22.5813622
          ],
          [
            88.4318053,
            22.581208
          ],
          [
            88.4319144,
            22.5810666
          ]
        ]
      },
      "properties": {
        "name": "Salt Lake",
        "power": "substation",
        "osm_id": 149250556
      }
    },
    {
      "type": "Feature",
      "geometry": {
        "type": "LineString",
        "coordinates": [
          [
            88.421526,
            22.4429751
          ],
          [
            88.4217757,
            22.4439124
          ],
          [
            88.4219568,
            22.4438659
          ],
          [
            88.4221211,
            22.4438675
          ],
          [
            88.4221395,
            22.4437714
          ],
          [
            88.422391,
            22.4438628
          ],
          [
            88.4226055,
            22.4438799
          ],
          [
            88.4228888,
            22.44379
          ],
          [
            88.4229173,
            22.4435235
          ],
          [
            88.4229659,
            22.4434817
          ],
          [
            88.4229626,
            22.4431083
          ],
          [
            88.4218964,
            22.4429968
          ],
          [
            88.421526,
            22.4429751
          ]
        ]
      },
      "properties": {
        "designation": "Sonarpur",
        "power": "substation",
        "voltage": "132000",
        "osm_id": 149250565
      }
    },
    {
      "type": "Feature",
      "geometry": {
        "type": "LineString",
        "coordinates": [
          [
            88.3928586,
            22.531058
          ],
          [
            88.3929384,
            22.5313009
          ],
          [
            88.3924358,
            22.5314405
          ],
          [
            88.3925638,
            22.5318401
          ],
          [
            88.3924984,
            22.5321079
          ],
          [
            88.3924608,
            22.5322697
          ],
          [
            88.392193,
            22.5323394
          ],
          [
            88.3925706,
            22.5332631
          ],
          [
            88.3929553,
            22.5331068
          ],
          [
            88.3930912,
            22.5330432
          ],
          [
            88.3935324,
            22.5326628
          ],
          [
            88.3937038,
            22.5324931
          ],
          [
            88.3938027,
            22.5324327
          ],
          [
            88.3941899,
            22.5323339
          ],
          [
            88.3938711,
            22.5310522
          ],
          [
            88.3937007,
            22.5310857
          ],
          [
            88.3936067,
            22.5310166
          ],
          [
            88.3935081,
            22.5308148
          ],
          [
            88.3934641,
            22.5306923
          ],
          [
            88.3941474,
            22.5304085
          ],
          [
            88.3940119,
            22.5300269
          ],
          [
            88.394062,
            22.5299991
          ],
          [
            88.3941007,
            22.5299769
          ],
          [
            88.3940362,
            22.5297053
          ],
          [
            88.393889,
            22.5292346
          ],
          [
            88.3937096,
            22.5286772
          ],
          [
            88.3933172,
            22.5287987
          ],
          [
            88.3924886,
            22.5290743
          ],
          [
            88.3917765,
            22.5296441
          ],
          [
            88.391536,
            22.5298397
          ],
          [
            88.3912628,
            22.5299898
          ],
          [
            88.3915279,
            22.5305495
          ],
          [
            88.3918234,
            22.5310379
          ],
          [
            88.3919423,
            22.5313827
          ],
          [
            88.3923315,
            22.531255
          ],
          [
            88.3928586,
            22.531058
          ]
        ]
      },
      "properties": {
        "name": "Kasba",
        "power": "substation",
        "voltage": "220000;132000",
        "osm_id": 149250571
      }
    },
    {
      "type": "Feature",
      "geometry": {
        "type": "LineString",
        "coordinates": [
          [
            88.5090206,
            22.5024992
          ],
          [
            88.5091653,
            22.5038569
          ],
          [
            88.509276,
            22.504934
          ],
          [
            88.5104859,
            22.5049089
          ],
          [
            88.5104882,
            22.5043773
          ],
          [
            88.5104542,
            22.5033912
          ],
          [
            88.5103747,
            22.5032962
          ],
          [
            88.5100941,
            22.5033101
          ],
          [
            88.5100687,
            22.502472
          ],
          [
            88.5090206,
            22.5024992
          ]
        ]
      },
      "properties": {
        "name": "Bantala CLC",
        "power": "substation",
        "substation": "transmission",
        "voltage": "220000;132000",
        "osm_id": 149250749
      }
    },
    {
      "type": "Feature",
      "geometry": {
        "type": "LineString",
        "coordinates": [
          [
            88.2978149,
            22.4485167
          ],
          [
            88.297328,
            22.4486924
          ],
          [
            88.2966887,
            22.4490435
          ],
          [
            88.2974136,
            22.4498803
          ],
          [
            88.2983933,
            22.4491013
          ],
          [
            88.2978149,
            22.4485167
          ]
        ]
      },
      "properties": {
        "name": "Joka",
        "power": "substation",
        "voltage": "132000",
        "osm_id": 149255380
      }
    },
    {
      "type": "Feature",
      "geometry": {
        "type": "LineString",
        "coordinates": [
          [
            88.4565299,
            22.4024164
          ],
          [
            88.4572989,
            22.4051585
          ],
          [
            88.4591507,
            22.4047487
          ],
          [
            88.4601982,
            22.4044585
          ],
          [
            88.4597039,
            22.4032506
          ],
          [
            88.4588329,
            22.4019557
          ],
          [
            88.4565299,
            22.4024164
          ]
        ]
      },
      "properties": {
        "name": "Subhasgram",
        "power": "substation",
        "substation": "transmission",
        "voltage": "220000;132000",
        "osm_id": 149255383
      }
    },
    {
      "type": "Feature",
      "geometry": {
        "type": "LineString",
        "coordinates": [
          [
            88.4632631,
            22.4043117
          ],
          [
            88.4634712,
            22.4050632
          ],
          [
            88.4633852,
            22.4050862
          ],
          [
            88.4640399,
            22.4073689
          ],
          [
            88.4643506,
            22.4084769
          ],
          [
            88.465943,
            22.4080101
          ],
          [
            88.4675937,
            22.4075125
          ],
          [
            88.4665256,
            22.4032498
          ],
          [
            88.4632631,
            22.4043117
          ]
        ]
      },
      "properties": {
        "name": "Subhasgram",
        "power": "substation",
        "substation": "transmission",
        "voltage": "400000;220000",
        "osm_id": 149255384
      }
    },
    {
      "type": "Feature",
      "geometry": {
        "type": "LineString",
        "coordinates": [
          [
            88.4201037,
            22.5906629
          ],
          [
            88.4197846,
            22.5907867
          ],
          [
            88.4200072,
            22.5914974
          ],
          [
            88.4200903,
            22.5915469
          ],
          [
            88.4201271,
            22.5915716
          ],
          [
            88.420667,
            22.5914281
          ],
          [
            88.4207099,
            22.5913984
          ],
          [
            88.420954,
            22.5910665
          ],
          [
            88.4201332,
            22.5906431
          ],
          [
            88.4201037,
            22.5906629
          ]
        ]
      },
      "properties": {
        "landuse": "industrial",
        "power": "substation",
        "osm_id": 192062115
      }
    },
    {
      "type": "Feature",
      "geometry": {
        "type": "LineString",
        "coordinates": [
          [
            88.4130053,
            22.5921298
          ],
          [
            88.4136421,
            22.5924919
          ],
          [
            88.4135671,
            22.5928322
          ],
          [
            88.4134526,
            22.5927957
          ],
          [
            88.4129162,
            22.592444
          ],
          [
            88.4128726,
            22.5923345
          ],
          [
            88.4130053,
            22.5921298
          ]
        ]
      },
      "properties": {
        "landuse": "industrial",
        "name": "M-I 33/11 KV Sub-Station",
        "power": "substation",
        "voltage": "33000;11000",
        "osm_id": 192072918
      }
    },
    {
      "type": "Feature",
      "geometry": {
        "type": "LineString",
        "coordinates": [
          [
            88.4134787,
            22.5704909
          ],
          [
            88.4127491,
            22.5706717
          ],
          [
            88.4125691,
            22.5699433
          ],
          [
            88.4132909,
            22.5697807
          ],
          [
            88.4134787,
            22.5704909
          ]
        ]
      },
      "properties": {
        "power": "substation",
        "osm_id": 192722675
      }
    },
    {
      "type": "Feature",
      "geometry": {
        "type": "LineString",
        "coordinates": [
          [
            88.4350463,
            22.5755732
          ],
          [
            88.4344455,
            22.5758531
          ],
          [
            88.4338718,
            22.5748056
          ],
          [
            88.4344927,
            22.5745189
          ],
          [
            88.4348271,
            22.5751558
          ],
          [
            88.4350463,
            22.5755732
          ]
        ]
      },
      "properties": {
        "name": "Mahishbathan 33/11 KV Sub-Station",
        "power": "substation",
        "voltage": "33000;11000",
        "osm_id": 193477759
      }
    },
    {
      "type": "Feature",
      "geometry": {
        "type": "LineString",
        "coordinates": [
          [
            87.8710557,
            22.4139207
          ],
          [
            87.8745078,
            22.4140758
          ],
          [
            87.8745593,
            22.4133048
          ],
          [
            87.8746215,
            22.4124992
          ],
          [
            87.8711372,
            22.4123566
          ],
          [
            87.8710557,
            22.4139207
          ]
        ]
      },
      "properties": {
        "barrier": "fence",
        "name": "Kolaghat TPS",
        "power": "substation",
        "substation": "generation",
        "voltage": "400000",
        "osm_id": 220556256
      }
    },
    {
      "type": "Feature",
      "geometry": {
        "type": "LineString",
        "coordinates": [
          [
            88.1424822,
            22.4684839
          ],
          [
            88.1425487,
            22.4684557
          ],
          [
            88.1429212,
            22.4677432
          ],
          [
            88.142897,
            22.4676763
          ],
          [
            88.1424501,
            22.4674679
          ],
          [
            88.1425689,
            22.4671907
          ],
          [
            88.1415301,
            22.4667275
          ],
          [
            88.1410095,
            22.4667094
          ],
          [
            88.1402669,
            22.4663726
          ],
          [
            88.139911,
            22.4670426
          ],
          [
            88.1413549,
            22.4676974
          ],
          [
            88.1412371,
            22.4679192
          ],
          [
            88.1424822,
            22.4684839
          ]
        ]
      },
      "properties": {
        "name": "Budge Budge TPS",
        "power": "substation",
        "substation": "generation",
        "voltage": "220000",
        "osm_id": 232029755
      }
    },
    {
      "type": "Feature",
      "geometry": {
        "type": "LineString",
        "coordinates": [
          [
            88.3277644,
            22.1133426
          ],
          [
            88.3283946,
            22.1135925
          ],
          [
            88.3293548,
            22.1136466
          ],
          [
            88.3303815,
            22.1138685
          ],
          [
            88.3304258,
            22.1144691
          ],
          [
            88.3305123,
            22.1151722
          ],
          [
            88.3295541,
            22.1153083
          ],
          [
            88.3295239,
            22.1152803
          ],
          [
            88.3289844,
            22.1153064
          ],
          [
            88.328459,
            22.1152822
          ],
          [
            88.3279335,
            22.1153699
          ],
          [
            88.3278872,
            22.1150976
          ],
          [
            88.3279416,
            22.115077
          ],
          [
            88.3279114,
            22.1144784
          ],
          [
            88.3277886,
            22.1136839
          ],
          [
            88.3277644,
            22.1133426
          ]
        ]
      },
      "properties": {
        "name": "Laxmikantapur",
        "power": "substation",
        "substation": "transmission",
        "voltage": "220000;132000",
        "osm_id": 232029756
      }
    },
    {
      "type": "Feature",
      "geometry": {
        "type": "LineString",
        "coordinates": [
          [
            88.2680813,
            22.5120417
          ],
          [
            88.2691462,
            22.5117795
          ],
          [
            88.2690657,
            22.5114522
          ],
          [
            88.2692448,
            22.5113685
          ],
          [
            88.269114,
            22.5106209
          ],
          [
            88.2688845,
            22.5100109
          ],
          [
            88.2689368,
            22.5099811
          ],
          [
            88.268808,
            22.5095255
          ],
          [
            88.2684597,
            22.5095943
          ],
          [
            88.2681739,
            22.5089434
          ],
          [
            88.2675075,
            22.5091647
          ],
          [
            88.2675156,
            22.509306
          ],
          [
            88.2672317,
            22.5093563
          ],
          [
            88.2668512,
            22.5094623
          ],
          [
            88.2671794,
            22.5104461
          ],
          [
            88.2672357,
            22.5105632
          ],
          [
            88.2671492,
            22.5106358
          ],
          [
            88.2673062,
            22.5111118
          ],
          [
            88.2674391,
            22.5111174
          ],
          [
            88.2676283,
            22.5114875
          ],
          [
            88.26789,
            22.5119915
          ],
          [
            88.2680813,
            22.5120417
          ]
        ]
      },
      "properties": {
        "power": "substation",
        "voltage": "220000",
        "osm_id": 232029765
      }
    },
    {
      "type": "Feature",
      "geometry": {
        "type": "LineString",
        "coordinates": [
          [
            88.4479567,
            22.5846083
          ],
          [
            88.4487939,
            22.5845537
          ],
          [
            88.4487615,
            22.5837709
          ],
          [
            88.4479048,
            22.5838086
          ],
          [
            88.4479567,
            22.5846083
          ]
        ]
      },
      "properties": {
        "name": "33KV Substation(AA-IA)",
        "power": "substation",
        "voltage": "33000",
        "osm_id": 238615735
      }
    },
    {
      "type": "Feature",
      "geometry": {
        "type": "LineString",
        "coordinates": [
          [
            88.4502762,
            22.5803784
          ],
          [
            88.4504306,
            22.5803835
          ],
          [
            88.4504251,
            22.5802842
          ],
          [
            88.4502707,
            22.5802664
          ],
          [
            88.4502762,
            22.5803784
          ]
        ]
      },
      "properties": {
        "power": "substation",
        "osm_id": 238627363
      }
    },
    {
      "type": "Feature",
      "geometry": {
        "type": "LineString",
        "coordinates": [
          [
            88.4606292,
            22.5787481
          ],
          [
            88.4613319,
            22.5786195
          ],
          [
            88.4611463,
            22.5777261
          ],
          [
            88.4604223,
            22.5779132
          ],
          [
            88.4605543,
            22.5785869
          ],
          [
            88.4605759,
            22.5787238
          ],
          [
            88.4606292,
            22.5787481
          ]
        ]
      },
      "properties": {
        "name": "33KV Substation(AA-IC)",
        "power": "substation",
        "voltage": "33000",
        "osm_id": 238651372
      }
    },
    {
      "type": "Feature",
      "geometry": {
        "type": "LineString",
        "coordinates": [
          [
            88.1718428,
            22.094606
          ],
          [
            88.1723068,
            22.094503
          ],
          [
            88.1724906,
            22.0952136
          ],
          [
            88.1720265,
            22.0953166
          ],
          [
            88.1718428,
            22.094606
          ]
        ]
      },
      "properties": {
        "power": "substation",
        "osm_id": 308239417
      }
    },
    {
      "type": "Feature",
      "geometry": {
        "type": "LineString",
        "coordinates": [
          [
            88.1774407,
            22.0964228
          ],
          [
            88.1775096,
            22.0982096
          ],
          [
            88.1789482,
            22.0981481
          ],
          [
            88.1789048,
            22.0963567
          ],
          [
            88.1774407,
            22.0964228
          ]
        ]
      },
      "properties": {
        "power": "substation",
        "voltage": "132000",
        "osm_id": 308239418
      }
    },
    {
      "type": "Feature",
      "geometry": {
        "type": "LineString",
        "coordinates": [
          [
            88.1562454,
            22.4302207
          ],
          [
            88.1565031,
            22.4296843
          ],
          [
            88.1563934,
            22.4296265
          ],
          [
            88.1560031,
            22.429722
          ],
          [
            88.1558603,
            22.4300509
          ],
          [
            88.1562454,
            22.4302207
          ]
        ]
      },
      "properties": {
        "power": "substation",
        "osm_id": 308239423
      }
    },
    {
      "type": "Feature",
      "geometry": {
        "type": "LineString",
        "coordinates": [
          [
            88.1689235,
            22.0965614
          ],
          [
            88.1695957,
            22.0962121
          ],
          [
            88.1694824,
            22.0960248
          ],
          [
            88.1692472,
            22.096147
          ],
          [
            88.1691251,
            22.0959452
          ],
          [
            88.168688,
            22.0961723
          ],
          [
            88.1689235,
            22.0965614
          ]
        ]
      },
      "properties": {
        "power": "substation",
        "voltage": "132000",
        "osm_id": 308239425
      }
    },
    {
      "type": "Feature",
      "geometry": {
        "type": "LineString",
        "coordinates": [
          [
            88.4820652,
            22.515983
          ],
          [
            88.4823579,
            22.5159038
          ],
          [
            88.4824333,
            22.5161412
          ],
          [
            88.4821406,
            22.5162205
          ],
          [
            88.4820652,
            22.515983
          ]
        ]
      },
      "properties": {
        "power": "substation",
        "osm_id": 316657410
      }
    },
    {
      "type": "Feature",
      "geometry": {
        "type": "LineString",
        "coordinates": [
          [
            88.4537932,
            22.5231829
          ],
          [
            88.4542323,
            22.5230316
          ],
          [
            88.454161,
            22.522855
          ],
          [
            88.4539905,
            22.5229137
          ],
          [
            88.4537219,
            22.5230063
          ],
          [
            88.4537932,
            22.5231829
          ]
        ]
      },
      "properties": {
        "power": "substation",
        "osm_id": 316657411
      }
    },
    {
      "type": "Feature",
      "geometry": {
        "type": "LineString",
        "coordinates": [
          [
            88.1201209,
            22.0567202
          ],
          [
            88.1216826,
            22.0570293
          ],
          [
            88.1231095,
            22.0511942
          ],
          [
            88.1213172,
            22.0507776
          ],
          [
            88.1201209,
            22.0567202
          ]
        ]
      },
      "properties": {
        "name": "Haldia Tata Power Power Plant",
        "operator": "Tata Power Ltd.",
        "plant:method": "combustion",
        "plant:output:electricity": "120 MW",
        "plant:source": "coal",
        "power": "plant",
        "source": "https://www.tatapower.com/plants-projects/waste-heat-recovery-generation/haldia-120mw.aspx;https://www.equitybulls.com/category.php?id=27418",
        "wikidata": "Q17779795",
        "osm_id": 335946818
      }
    },
    {
      "type": "Feature",
      "geometry": {
        "type": "LineString",
        "coordinates": [
          [
            87.8679333,
            22.4138155
          ],
          [
            87.8679747,
            22.4127654
          ],
          [
            87.8689125,
            22.4127969
          ],
          [
            87.8689631,
            22.4120452
          ],
          [
            87.8692346,
            22.4119384
          ],
          [
            87.8701438,
            22.411969
          ],
          [
            87.8701159,
            22.4126784
          ],
          [
            87.8705784,
            22.412694
          ],
          [
            87.8705369,
            22.413748
          ],
          [
            87.8701255,
            22.4137341
          ],
          [
            87.8701194,
            22.4138891
          ],
          [
            87.8679333,
            22.4138155
          ]
        ]
      },
      "properties": {
        "power": "substation",
        "voltage": "220000;132000",
        "osm_id": 349145510
      }
    },
    {
      "type": "Feature",
      "geometry": {
        "type": "LineString",
        "coordinates": [
          [
            88.1879229,
            21.9146431
          ],
          [
            88.1899413,
            21.9141367
          ],
          [
            88.1896649,
            21.912863
          ],
          [
            88.1875332,
            21.9133737
          ],
          [
            88.1879229,
            21.9146431
          ]
        ]
      },
      "properties": {
        "power": "substation",
        "substation": "yes",
        "osm_id": 396096009
      }
    },
    {
      "type": "Feature",
      "geometry": {
        "type": "LineString",
        "coordinates": [
          [
            88.1749699,
            22.1086753
          ],
          [
            88.1748646,
            22.1068761
          ],
          [
            88.1774596,
            22.1067457
          ],
          [
            88.1775396,
            22.1081117
          ],
          [
            88.1759124,
            22.1081935
          ],
          [
            88.1759378,
            22.1086266
          ],
          [
            88.1749699,
            22.1086753
          ]
        ]
      },
      "properties": {
        "name": "Haldia TPP",
        "power": "substation",
        "substation": "generation",
        "voltage": "400000",
        "osm_id": 396096012
      }
    },
    {
      "type": "Feature",
      "geometry": {
        "type": "LineString",
        "coordinates": [
          [
            88.4615136,
            22.5831826
          ],
          [
            88.4614554,
            22.5831502
          ],
          [
            88.461283,
            22.5822388
          ],
          [
            88.4619941,
            22.5821242
          ],
          [
            88.4621742,
            22.5830761
          ],
          [
            88.4615136,
            22.5831826
          ]
        ]
      },
      "properties": {
        "power": "substation",
        "voltage": "33000",
        "osm_id": 396096018
      }
    },
    {
      "type": "Feature",
      "geometry": {
        "type": "LineString",
        "coordinates": [
          [
            88.4022009,
            22.5131878
          ],
          [
            88.4024097,
            22.5131731
          ],
          [
            88.4025584,
            22.5131535
          ],
          [
            88.4028415,
            22.513111
          ],
          [
            88.4033813,
            22.5130341
          ],
          [
            88.403399,
            22.5130161
          ],
          [
            88.4033759,
            22.5128249
          ],
          [
            88.4033653,
            22.512681
          ],
          [
            88.4033459,
            22.5124996
          ],
          [
            88.4030486,
            22.5125273
          ],
          [
            88.402677,
            22.5125764
          ],
          [
            88.402385,
            22.5126025
          ],
          [
            88.4022009,
            22.5126254
          ],
          [
            88.4022009,
            22.5128314
          ],
          [
            88.4022009,
            22.5131878
          ]
        ]
      },
      "properties": {
        "power": "substation",
        "osm_id": 419200349
      }
    },
    {
      "type": "Feature",
      "geometry": {
        "type": "LineString",
        "coordinates": [
          [
            88.1003198,
            22.0780454
          ],
          [
            88.1007729,
            22.076112
          ],
          [
            88.101527,
            22.0762638
          ],
          [
            88.1010739,
            22.0781971
          ],
          [
            88.1003198,
            22.0780454
          ]
        ]
      },
      "properties": {
        "name": "Hiranmayee TPP",
        "power": "substation",
        "substation": "generation",
        "voltage": "220000",
        "osm_id": 475959661
      }
    },
    {
      "type": "Feature",
      "geometry": {
        "type": "LineString",
        "coordinates": [
          [
            88.0966956,
            22.0740793
          ],
          [
            88.0968082,
            22.0760156
          ],
          [
            88.0967305,
            22.0770645
          ],
          [
            88.0968056,
            22.0789659
          ],
          [
            88.0969368,
            22.0824499
          ],
          [
            88.1011633,
            22.0832846
          ],
          [
            88.1019393,
            22.0825152
          ],
          [
            88.1024972,
            22.0846601
          ],
          [
            88.10287,
            22.0864471
          ],
          [
            88.1049729,
            22.0867677
          ],
          [
            88.1071026,
            22.086129
          ],
          [
            88.1069443,
            22.0855573
          ],
          [
            88.1079823,
            22.0854828
          ],
          [
            88.1082586,
            22.0847123
          ],
          [
            88.1087168,
            22.0828446
          ],
          [
            88.1066687,
            22.0821956
          ],
          [
            88.1068981,
            22.0811424
          ],
          [
            88.1060579,
            22.0808879
          ],
          [
            88.1058822,
            22.0803851
          ],
          [
            88.1048093,
            22.0801565
          ],
          [
            88.1047717,
            22.0808126
          ],
          [
            88.1033636,
            22.0810239
          ],
          [
            88.1028298,
            22.0802459
          ],
          [
            88.1025535,
            22.0794555
          ],
          [
            88.1023551,
            22.0787521
          ],
          [
            88.1021753,
            22.0764853
          ],
          [
            88.1015826,
            22.076023
          ],
          [
            88.0993054,
            22.0751307
          ],
          [
            88.0966956,
            22.0740793
          ]
        ]
      },
      "properties": {
        "landuse": "industrial",
        "name": "Hiranmaye Haldia Power Plant",
        "power": "plant",
        "source": "https://www.gem.wiki/Hiranmaye_Haldia_power_station",
        "osm_id": 475959669
      }
    },
    {
      "type": "Feature",
      "geometry": {
        "type": "LineString",
        "coordinates": [
          [
            88.1116992,
            22.572058
          ],
          [
            88.1139442,
            22.5725063
          ],
          [
            88.1144726,
            22.5700766
          ],
          [
            88.1127292,
            22.5700791
          ],
          [
            88.1123832,
            22.5701682
          ],
          [
            88.1119809,
            22.5703961
          ],
          [
            88.1116992,
            22.572058
          ]
        ]
      },
      "properties": {
        "name": "Foundry Park",
        "power": "substation",
        "substation": "transmission",
        "voltage": "220000",
        "osm_id": 507336638
      }
    },
    {
      "type": "Feature",
      "geometry": {
        "type": "LineString",
        "coordinates": [
          [
            88.4833682,
            22.5783131
          ],
          [
            88.4842158,
            22.578962
          ],
          [
            88.4846664,
            22.5784815
          ],
          [
            88.4842372,
            22.5780803
          ],
          [
            88.4837973,
            22.5777583
          ],
          [
            88.4833682,
            22.5783131
          ]
        ]
      },
      "properties": {
        "name": "Electrical Substation",
        "power": "substation",
        "osm_id": 516770056
      }
    },
    {
      "type": "Feature",
      "geometry": {
        "type": "LineString",
        "coordinates": [
          [
            88.4889608,
            22.5628228
          ],
          [
            88.4892488,
            22.5626666
          ],
          [
            88.4888654,
            22.5620638
          ],
          [
            88.4888265,
            22.5620849
          ],
          [
            88.4885774,
            22.56222
          ],
          [
            88.4889608,
            22.5628228
          ]
        ]
      },
      "properties": {
        "landuse": "industrial",
        "power": "substation",
        "osm_id": 516773871
      }
    },
    {
      "type": "Feature",
      "geometry": {
        "type": "LineString",
        "coordinates": [
          [
            88.1749699,
            22.1086753
          ],
          [
            88.1759378,
            22.1086266
          ],
          [
            88.1773746,
            22.1086429
          ],
          [
            88.1775409,
            22.1098704
          ],
          [
            88.1786084,
            22.1095872
          ],
          [
            88.1791717,
            22.1097263
          ],
          [
            88.1799334,
            22.1085087
          ],
          [
            88.1805986,
            22.1074998
          ],
          [
            88.1806737,
            22.1067095
          ],
          [
            88.1813523,
            22.1052061
          ],
          [
            88.1801775,
            22.103725
          ],
          [
            88.1800917,
            22.1034864
          ],
          [
            88.1799602,
            22.1027583
          ],
          [
            88.1734586,
            22.1030366
          ],
          [
            88.1734371,
            22.1052533
          ],
          [
            88.1741774,
            22.1074799
          ],
          [
            88.1749699,
            22.1086753
          ]
        ]
      },
      "properties": {
        "landuse": "industrial",
        "name": "Haldia Energy power station",
        "operator": "Haldia Energy Limited",
        "plant:method": "combustion",
        "plant:output:electricity": "600 MW",
        "plant:source": "coal",
        "power": "plant",
        "website": "https://www.haldiaenergy.co.in",
        "wikidata": "Q15991723",
        "osm_id": 603765443
      }
    },
    {
      "type": "Feature",
      "geometry": {
        "type": "LineString",
        "coordinates": [
          [
            87.8635429,
            22.4223966
          ],
          [
            87.8637676,
            22.4223855
          ],
          [
            87.8637536,
            22.4221458
          ],
          [
            87.8637745,
            22.4221448
          ],
          [
            87.8637535,
            22.4217829
          ],
          [
            87.8634524,
            22.4217978
          ],
          [
            87.8634737,
            22.4221646
          ],
          [
            87.8635292,
            22.4221619
          ],
          [
            87.8635429,
            22.4223966
          ]
        ]
      },
      "properties": {
        "power": "substation",
        "osm_id": 661053483
      }
    },
    {
      "type": "Feature",
      "geometry": {
        "type": "LineString",
        "coordinates": [
          [
            88.316086,
            22.1090806
          ],
          [
            88.3162544,
            22.1085599
          ],
          [
            88.3180837,
            22.109079
          ],
          [
            88.3179245,
            22.1095903
          ],
          [
            88.316086,
            22.1090806
          ]
        ]
      },
      "properties": {
        "power": "substation",
        "osm_id": 662152047
      }
    },
    {
      "type": "Feature",
      "geometry": {
        "type": "LineString",
        "coordinates": [
          [
            88.1685045,
            22.0867645
          ],
          [
            88.1689431,
            22.0863955
          ],
          [
            88.1682497,
            22.085671
          ],
          [
            88.1678072,
            22.0860674
          ],
          [
            88.1683691,
            22.0866825
          ],
          [
            88.1685045,
            22.0867645
          ]
        ]
      },
      "properties": {
        "power": "substation",
        "voltage": "132000",
        "osm_id": 664426040
      }
    },
    {
      "type": "Feature",
      "geometry": {
        "type": "LineString",
        "coordinates": [
          [
            88.094158,
            22.0556471
          ],
          [
            88.09438,
            22.0548808
          ],
          [
            88.0949767,
            22.0550293
          ],
          [
            88.0948407,
            22.0554988
          ],
          [
            88.0945629,
            22.0554296
          ],
          [
            88.0944769,
            22.0557264
          ],
          [
            88.094158,
            22.0556471
          ]
        ]
      },
      "properties": {
        "power": "substation",
        "osm_id": 755645639
      }
    },
    {
      "type": "Feature",
      "geometry": {
        "type": "LineString",
        "coordinates": [
          [
            88.1761956,
            22.5715915
          ],
          [
            88.1761343,
            22.5709679
          ],
          [
            88.176717,
            22.5709134
          ],
          [
            88.1771332,
            22.5708736
          ],
          [
            88.1771748,
            22.5713467
          ],
          [
            88.1761956,
            22.5715915
          ]
        ]
      },
      "properties": {
        "power": "substation",
        "osm_id": 775141576
      }
    },
    {
      "type": "Feature",
      "geometry": {
        "type": "LineString",
        "coordinates": [
          [
            88.1761956,
            22.5715915
          ],
          [
            88.1761343,
            22.5709679
          ],
          [
            88.1754408,
            22.5710261
          ],
          [
            88.1755095,
            22.5717242
          ],
          [
            88.1761956,
            22.5715915
          ]
        ]
      },
      "properties": {
        "power": "substation",
        "osm_id": 775141577
      }
    },
    {
      "type": "Feature",
      "geometry": {
        "type": "LineString",
        "coordinates": [
          [
            88.5706369,
            22.5496569
          ],
          [
            88.570767,
            22.5498353
          ],
          [
            88.5709225,
            22.5496916
          ],
          [
            88.5707831,
            22.5495628
          ],
          [
            88.5706369,
            22.5496569
          ]
        ]
      },
      "properties": {
        "power": "substation",
        "osm_id": 824921393
      }
    },
    {
      "type": "Feature",
      "geometry": {
        "type": "LineString",
        "coordinates": [
          [
            88.0426821,
            22.47737
          ],
          [
            88.0432259,
            22.4773427
          ],
          [
            88.0430147,
            22.4765063
          ],
          [
            88.0425198,
            22.4765831
          ],
          [
            88.0426821,
            22.47737
          ]
        ]
      },
      "properties": {
        "power": "substation",
        "osm_id": 829191042
      }
    },
    {
      "type": "Feature",
      "geometry": {
        "type": "LineString",
        "coordinates": [
          [
            88.218316,
            22.5959378
          ],
          [
            88.2192219,
            22.5956549
          ],
          [
            88.2189734,
            22.5949765
          ],
          [
            88.2180798,
            22.5954446
          ],
          [
            88.2183027,
            22.5959101
          ],
          [
            88.218316,
            22.5959378
          ]
        ]
      },
      "properties": {
        "power": "substation",
        "osm_id": 829191047
      }
    },
    {
      "type": "Feature",
      "geometry": {
        "type": "LineString",
        "coordinates": [
          [
            88.174776,
            22.5578227
          ],
          [
            88.1750384,
            22.5591246
          ],
          [
            88.1734318,
            22.5593772
          ],
          [
            88.1732243,
            22.5580003
          ],
          [
            88.174776,
            22.5578227
          ]
        ]
      },
      "properties": {
        "name": "Food Park",
        "power": "substation",
        "substation": "transmission",
        "voltage": "220000",
        "osm_id": 829191062
      }
    },
    {
      "type": "Feature",
      "geometry": {
        "type": "LineString",
        "coordinates": [
          [
            88.1011098,
            22.0667159
          ],
          [
            88.1019827,
            22.0647538
          ],
          [
            88.1043251,
            22.0656428
          ],
          [
            88.1034837,
            22.0676165
          ],
          [
            88.1023031,
            22.0672094
          ],
          [
            88.1011098,
            22.0667159
          ]
        ]
      },
      "properties": {
        "landuse": "industrial",
        "name": "HPL Cogen Haldia Power Plant",
        "name:bn": "\u098f\u0987\u099a\u09aa\u09bf\u098f\u09b2 \u0995\u09cb\u099c\u09c7\u09a8 \u09b9\u09be\u09b2\u09a6\u09bf\u09af\u09bc\u09be \u09aa\u09be\u0993\u09af\u09bc\u09be\u09b0 \u09aa\u09cd\u09b2\u09cd\u09af\u09be\u09a8\u09cd\u099f",
        "plant:method": "combustion",
        "plant:output:electricity": "yes",
        "plant:source": "gas",
        "power": "plant",
        "source": "http://globalenergyobservatory.org/geoid/3452",
        "osm_id": 926899740
      }
    },
    {
      "type": "Feature",
      "geometry": {
        "type": "LineString",
        "coordinates": [
          [
            88.2919109,
            22.5503614
          ],
          [
            88.2906679,
            22.5498161
          ],
          [
            88.2902549,
            22.5485781
          ],
          [
            88.2917548,
            22.5481741
          ],
          [
            88.2919312,
            22.5486335
          ],
          [
            88.2930967,
            22.5483748
          ],
          [
            88.2929229,
            22.5475261
          ],
          [
            88.2947244,
            22.5468666
          ],
          [
            88.2948203,
            22.5462984
          ],
          [
            88.29591,
            22.545794
          ],
          [
            88.2961473,
            22.546256
          ],
          [
            88.2974576,
            22.5454857
          ],
          [
            88.2977372,
            22.5459528
          ],
          [
            88.2963905,
            22.5472892
          ],
          [
            88.2950566,
            22.5484678
          ],
          [
            88.2943027,
            22.5495517
          ],
          [
            88.2919109,
            22.5503614
          ]
        ]
      },
      "properties": {
        "landuse": "industrial",
        "name": "Southern CESC power station",
        "operator": "CESC Ltd",
        "plant:method": "combustion",
        "plant:output:electricity": "135 MW",
        "plant:source": "coal",
        "power": "plant",
        "start_date": "1990",
        "wikidata": "Q15991754",
        "wikipedia": "en:Southern Thermal Power Station",
        "osm_id": 944914951
      }
    },
    {
      "type": "Feature",
      "geometry": {
        "type": "LineString",
        "coordinates": [
          [
            88.4267449,
            22.1776166
          ],
          [
            88.427015,
            22.1774293
          ],
          [
            88.4272262,
            22.1777144
          ],
          [
            88.4270336,
            22.1777757
          ],
          [
            88.4269551,
            22.1777792
          ],
          [
            88.4268844,
            22.1777472
          ],
          [
            88.4267449,
            22.1776166
          ]
        ]
      },
      "properties": {
        "name": "Jaynagar 33/11 kV Substation",
        "operator": "West Bengal State Electricity Distribution Company Limited",
        "operator:type": "government",
        "power": "substation",
        "substation": "substation",
        "voltage": "33000;11000",
        "osm_id": 1055888845
      }
    },
    {
      "type": "Feature",
      "geometry": {
        "type": "LineString",
        "coordinates": [
          [
            88.4958664,
            22.5668122
          ],
          [
            88.495794,
            22.5666832
          ],
          [
            88.4954593,
            22.566863
          ],
          [
            88.4955243,
            22.5669699
          ],
          [
            88.4955786,
            22.5670588
          ],
          [
            88.4958664,
            22.5668122
          ]
        ]
      },
      "properties": {
        "landuse": "industrial",
        "power": "substation",
        "osm_id": 1163447782
      }
    },
    {
      "type": "Feature",
      "geometry": {
        "type": "LineString",
        "coordinates": [
          [
            88.3521983,
            22.4556906
          ],
          [
            88.3525456,
            22.4556237
          ],
          [
            88.3524464,
            22.4552172
          ],
          [
            88.3521058,
            22.4552866
          ],
          [
            88.3521983,
            22.4556906
          ]
        ]
      },
      "properties": {
        "name": "WBSETCL Renia 132/33kV sub station",
        "power": "substation",
        "voltage": "132000;33000",
        "osm_id": 1414133247
      }
    },
    {
      "type": "Feature",
      "geometry": {
        "type": "LineString",
        "coordinates": [
          [
            88.2546182,
            22.0870553
          ],
          [
            88.2548542,
            22.0867148
          ],
          [
            88.2554524,
            22.0870827
          ],
          [
            88.2552257,
            22.0874095
          ],
          [
            88.2546182,
            22.0870553
          ]
        ]
      },
      "properties": {
        "name": "Kulpi 33/11KV Sub-station WBSEDCL",
        "power": "substation",
        "voltage": "33000;11000",
        "osm_id": 1414133248
      }
    },
    {
      "type": "Feature",
      "geometry": {
        "type": "LineString",
        "coordinates": [
          [
            88.512927,
            22.3435315
          ],
          [
            88.5135519,
            22.3439979
          ],
          [
            88.5140213,
            22.3434124
          ],
          [
            88.513332,
            22.3431371
          ],
          [
            88.512927,
            22.3435315
          ]
        ]
      },
      "properties": {
        "name": "Uttarbhag 33/11 KV Substation",
        "power": "substation",
        "voltage": "33000;11000",
        "osm_id": 1414133249
      }
    },
    {
      "type": "Feature",
      "geometry": {
        "type": "LineString",
        "coordinates": [
          [
            87.9584607,
            22.4679566
          ],
          [
            87.9588336,
            22.4679318
          ],
          [
            87.9587451,
            22.4673468
          ],
          [
            87.9583696,
            22.4672849
          ],
          [
            87.9584607,
            22.4679566
          ]
        ]
      },
      "properties": {
        "name": "Bagnan 132 kV G.I.S. Substation (WBSETCL)",
        "power": "substation",
        "voltage": "132000",
        "osm_id": 1414133250
      }
    },
    {
      "type": "Feature",
      "geometry": {
        "type": "LineString",
        "coordinates": [
          [
            88.0623051,
            22.0714078
          ],
          [
            88.0626565,
            22.0711344
          ],
          [
            88.0630374,
            22.0714625
          ],
          [
            88.0626324,
            22.071716
          ],
          [
            88.0623051,
            22.0714078
          ]
        ]
      },
      "properties": {
        "name": "Dighashipur 33/11 kv sub station",
        "power": "substation",
        "voltage": "33000;11000",
        "osm_id": 1414133251
      }
    },
    {
      "type": "Feature",
      "geometry": {
        "type": "LineString",
        "coordinates": [
          [
            87.8982358,
            22.2652741
          ],
          [
            87.8988621,
            22.2652877
          ],
          [
            87.8988889,
            22.2648062
          ],
          [
            87.8982827,
            22.2647826
          ],
          [
            87.8982358,
            22.2652741
          ]
        ]
      },
      "properties": {
        "name": "Nimtouri 33/11KV Sub Station",
        "power": "substation",
        "voltage": "33000;11000",
        "osm_id": 1414133252
      }
    },
    {
      "type": "Feature",
      "geometry": {
        "type": "LineString",
        "coordinates": [
          [
            88.6677776,
            22.4178188
          ],
          [
            88.6682323,
            22.4176341
          ],
          [
            88.6683784,
            22.4180122
          ],
          [
            88.667956,
            22.4181684
          ],
          [
            88.6677776,
            22.4178188
          ]
        ]
      },
      "properties": {
        "name": "Miyergheri 33/11 KV S/S",
        "operator": "WBSEDCL",
        "power": "substation",
        "substation": "distribution",
        "voltage": "33000;11000",
        "osm_id": 1414133253
      }
    },
    {
      "type": "Feature",
      "geometry": {
        "type": "LineString",
        "coordinates": [
          [
            88.221155,
            22.2749159
          ],
          [
            88.221509,
            22.2746479
          ],
          [
            88.2218416,
            22.2750103
          ],
          [
            88.2214312,
            22.2751939
          ],
          [
            88.221155,
            22.2749159
          ]
        ]
      },
      "properties": {
        "power": "substation",
        "osm_id": 1414133254
      }
    },
    {
      "type": "Feature",
      "geometry": {
        "type": "LineString",
        "coordinates": [
          [
            88.0935904,
            22.2552381
          ],
          [
            88.0941886,
            22.2551736
          ],
          [
            88.0941698,
            22.2546572
          ],
          [
            88.093518,
            22.2547987
          ],
          [
            88.0935904,
            22.2552381
          ]
        ]
      },
      "properties": {
        "power": "substation",
        "osm_id": 1414133255
      }
    },
    {
      "type": "Feature",
      "geometry": {
        "type": "LineString",
        "coordinates": [
          [
            88.5191068,
            22.5578266
          ],
          [
            88.5207269,
            22.5600386
          ],
          [
            88.5226902,
            22.558374
          ],
          [
            88.5213411,
            22.5564444
          ],
          [
            88.5191068,
            22.5578266
          ]
        ]
      },
      "properties": {
        "name": "NEWTOWN AA-III, 220 KV SUBSTATION, WBSETCL",
        "power": "substation",
        "voltage": "220000;132000",
        "osm_id": 1414133256
      }
    },
    {
      "type": "Feature",
      "geometry": {
        "type": "LineString",
        "coordinates": [
          [
            88.0873087,
            22.1362509
          ],
          [
            88.0877727,
            22.1361552
          ],
          [
            88.0882005,
            22.1367975
          ],
          [
            88.0879632,
            22.1368782
          ],
          [
            88.087593,
            22.1366807
          ],
          [
            88.0873087,
            22.1362509
          ]
        ]
      },
      "properties": {
        "name": "WBSEDCL Chaitanyapur Sub Station",
        "power": "substation",
        "osm_id": 1414133257
      }
    },
    {
      "type": "Feature",
      "geometry": {
        "type": "LineString",
        "coordinates": [
          [
            88.1910324,
            21.8850383
          ],
          [
            88.191019,
            21.884665
          ],
          [
            88.1915461,
            21.884726
          ],
          [
            88.1914803,
            21.885118
          ],
          [
            88.1910324,
            21.8850383
          ]
        ]
      },
      "properties": {
        "name": "Kakdwip 33/11 K.V Substation & Kakdwp C.C.C [WBESEDCL]",
        "power": "substation",
        "substation": "distribution",
        "osm_id": 1414133258
      }
    },
    {
      "type": "Feature",
      "geometry": {
        "type": "LineString",
        "coordinates": [
          [
            87.9029417,
            22.0443974
          ],
          [
            87.903395,
            22.0443887
          ],
          [
            87.9033306,
            22.0448387
          ],
          [
            87.9029149,
            22.0449058
          ],
          [
            87.9029417,
            22.0443974
          ]
        ]
      },
      "properties": {
        "power": "substation",
        "osm_id": 1414133259
      }
    },
    {
      "type": "Feature",
      "geometry": {
        "type": "LineString",
        "coordinates": [
          [
            87.9191972,
            21.9185737
          ],
          [
            87.9199402,
            21.9185053
          ],
          [
            87.9200086,
            21.9188362
          ],
          [
            87.9192227,
            21.9189582
          ],
          [
            87.9191972,
            21.9185737
          ]
        ]
      },
      "properties": {
        "name": "Malda 33/11KV Sub-Station",
        "power": "substation",
        "substation": "distribution",
        "voltage": "33000;11000",
        "osm_id": 1414133260
      }
    },
    {
      "type": "Feature",
      "geometry": {
        "type": "LineString",
        "coordinates": [
          [
            88.1737496,
            22.2542389
          ],
          [
            88.1743826,
            22.2539932
          ],
          [
            88.1744108,
            22.2540701
          ],
          [
            88.1742002,
            22.2541632
          ],
          [
            88.1742766,
            22.2544015
          ],
          [
            88.173885,
            22.2545269
          ],
          [
            88.1737496,
            22.2542389
          ]
        ]
      },
      "properties": {
        "name": "WBSEDCL Sub Station",
        "power": "substation",
        "osm_id": 1414133261
      }
    },
    {
      "type": "Feature",
      "geometry": {
        "type": "LineString",
        "coordinates": [
          [
            88.5184926,
            22.5428944
          ],
          [
            88.5189754,
            22.5428115
          ],
          [
            88.5190478,
            22.5432698
          ],
          [
            88.5185677,
            22.5433379
          ],
          [
            88.5184926,
            22.5428944
          ]
        ]
      },
      "properties": {
        "name": "NT AA 3G 33/11KV Sub-Station",
        "power": "substation",
        "voltage": "33000;11000",
        "osm_id": 1414133262
      }
    },
    {
      "type": "Feature",
      "geometry": {
        "type": "LineString",
        "coordinates": [
          [
            87.9173747,
            22.2779552
          ],
          [
            87.9179111,
            22.2781537
          ],
          [
            87.9176617,
            22.27867
          ],
          [
            87.9175463,
            22.2788735
          ],
          [
            87.917498,
            22.2789877
          ],
          [
            87.9173371,
            22.2789306
          ],
          [
            87.9171762,
            22.278871
          ],
          [
            87.9174498,
            22.2782158
          ],
          [
            87.9172781,
            22.2781264
          ],
          [
            87.9173747,
            22.2779552
          ]
        ]
      },
      "properties": {
        "name": "132/25 KV Tamluk Traction Substation132/25 KV Tamluk Traction Substation",
        "power": "substation",
        "substation": "traction",
        "voltage": "132000;25000",
        "osm_id": 1414133263
      }
    },
    {
      "type": "Feature",
      "geometry": {
        "type": "LineString",
        "coordinates": [
          [
            88.1420432,
            22.3591884
          ],
          [
            88.1424053,
            22.359083
          ],
          [
            88.1422417,
            22.3586204
          ],
          [
            88.1419198,
            22.3587047
          ],
          [
            88.1420432,
            22.3591884
          ]
        ]
      },
      "properties": {
        "power": "substation",
        "substation": "distribution",
        "osm_id": 1414133264
      }
    },
    {
      "type": "Feature",
      "geometry": {
        "type": "LineString",
        "coordinates": [
          [
            88.2112321,
            22.3788566
          ],
          [
            88.211664,
            22.378771
          ],
          [
            88.211904,
            22.3789223
          ],
          [
            88.2123868,
            22.3789359
          ],
          [
            88.2124847,
            22.3793427
          ],
          [
            88.2115285,
            22.3794841
          ],
          [
            88.2112321,
            22.3788566
          ]
        ]
      },
      "properties": {
        "name": "Deulberia 33/11 kv Power House",
        "power": "substation",
        "voltage": "33000;11000",
        "osm_id": 1414133265
      }
    },
    {
      "type": "Feature",
      "geometry": {
        "type": "LineString",
        "coordinates": [
          [
            88.7140766,
            22.5113255
          ],
          [
            88.7149348,
            22.5109785
          ],
          [
            88.7150877,
            22.5115089
          ],
          [
            88.7146988,
            22.5116228
          ],
          [
            88.7148356,
            22.5121085
          ],
          [
            88.7143689,
            22.5122522
          ],
          [
            88.7140766,
            22.5113255
          ]
        ]
      },
      "properties": {
        "name": "Minakhan 132 KV Substation",
        "operator": "WBSETCL",
        "power": "substation",
        "voltage": "132000",
        "osm_id": 1414133266
      }
    },
    {
      "type": "Feature",
      "geometry": {
        "type": "LineString",
        "coordinates": [
          [
            88.2734486,
            22.3191478
          ],
          [
            88.2756534,
            22.3188525
          ],
          [
            88.2754067,
            22.3176665
          ],
          [
            88.2751036,
            22.3177235
          ],
          [
            88.2746583,
            22.3178253
          ],
          [
            88.2742238,
            22.3179518
          ],
          [
            88.2732958,
            22.3181056
          ],
          [
            88.2734486,
            22.3191478
          ]
        ]
      },
      "properties": {
        "name": "Serakole",
        "power": "substation",
        "voltage": "132000",
        "osm_id": 1414133267
      }
    },
    {
      "type": "Feature",
      "geometry": {
        "type": "LineString",
        "coordinates": [
          [
            87.8598762,
            22.4869687
          ],
          [
            87.8605977,
            22.4870232
          ],
          [
            87.8605789,
            22.4866118
          ],
          [
            87.8598306,
            22.4865077
          ],
          [
            87.8598762,
            22.4869687
          ]
        ]
      },
      "properties": {
        "name": "Gopalnagar 33/11KV Sub-station Ray Polyclinic",
        "power": "substation",
        "voltage": "33000;11000",
        "osm_id": 1414133268
      }
    },
    {
      "type": "Feature",
      "geometry": {
        "type": "LineString",
        "coordinates": [
          [
            87.8918716,
            22.3600188
          ],
          [
            87.8926467,
            22.3599419
          ],
          [
            87.8926186,
            22.3595363
          ],
          [
            87.8918219,
            22.3596417
          ],
          [
            87.8918716,
            22.3600188
          ]
        ]
      },
      "properties": {
        "name": "Kanktya Sub Station 33/11 KV",
        "power": "substation",
        "voltage": "33000;11000",
        "osm_id": 1414133269
      }
    },
    {
      "type": "Feature",
      "geometry": {
        "type": "LineString",
        "coordinates": [
          [
            88.291178,
            21.9921606
          ],
          [
            88.2917172,
            21.9921805
          ],
          [
            88.291693,
            21.9926431
          ],
          [
            88.2915214,
            21.9926779
          ],
          [
            88.2914999,
            21.9928396
          ],
          [
            88.2911485,
            21.9929067
          ],
          [
            88.291178,
            21.9921606
          ]
        ]
      },
      "properties": {
        "name": "Shimulberia 33/11 KV Sub Station",
        "power": "substation",
        "voltage": "33000;11000",
        "osm_id": 1414133270
      }
    },
    {
      "type": "Feature",
      "geometry": {
        "type": "LineString",
        "coordinates": [
          [
            88.3921351,
            22.3533987
          ],
          [
            88.3927701,
            22.3532827
          ],
          [
            88.392752,
            22.3533466
          ],
          [
            88.3932341,
            22.3532449
          ],
          [
            88.3934701,
            22.3544015
          ],
          [
            88.3936726,
            22.3543562
          ],
          [
            88.3937075,
            22.3546161
          ],
          [
            88.3937497,
            22.3546868
          ],
          [
            88.3937497,
            22.3547308
          ],
          [
            88.3935989,
            22.3547351
          ],
          [
            88.3925816,
            22.3548902
          ],
          [
            88.3923751,
            22.3541844
          ],
          [
            88.3921351,
            22.3533987
          ]
        ]
      },
      "properties": {
        "name": "Baruipur",
        "power": "substation",
        "voltage": "220000;132000",
        "osm_id": 1428381106
      }
    },
    {
      "type": "Feature",
      "geometry": {
        "type": "LineString",
        "coordinates": [
          [
            88.9118694,
            22.5806825
          ],
          [
            88.912328,
            22.5807469
          ],
          [
            88.9123441,
            22.5803159
          ],
          [
            88.9119391,
            22.5803011
          ],
          [
            88.9118694,
            22.5806825
          ]
        ]
      },
      "properties": {
        "power": "substation",
        "osm_id": 1434381998
      }
    },
    {
      "type": "Feature",
      "geometry": {
        "type": "LineString",
        "coordinates": [
          [
            88.4780958,
            22.5729305
          ],
          [
            88.4775165,
            22.5734804
          ],
          [
            88.4779027,
            22.573837
          ],
          [
            88.4784982,
            22.5733144
          ],
          [
            88.4788147,
            22.5735844
          ],
          [
            88.4797347,
            22.5727274
          ],
          [
            88.4795496,
            22.571925
          ],
          [
            88.4786162,
            22.5714148
          ],
          [
            88.4775138,
            22.5724104
          ],
          [
            88.4780958,
            22.5729305
          ]
        ]
      },
      "properties": {
        "power": "substation",
        "osm_id": 1451369717
      }
    },
    {
      "type": "Feature",
      "geometry": {
        "type": "LineString",
        "coordinates": [
          [
            88.4795536,
            22.5789414
          ],
          [
            88.4799734,
            22.5786517
          ],
          [
            88.4802255,
            22.5789402
          ],
          [
            88.4798151,
            22.5792423
          ],
          [
            88.4795536,
            22.5789414
          ]
        ]
      },
      "properties": {
        "power": "substation",
        "osm_id": 1451369719
      }
    },
    {
      "type": "Feature",
      "geometry": {
        "type": "LineString",
        "coordinates": [
          [
            88.4795013,
            22.5921288
          ],
          [
            88.4796622,
            22.5916756
          ],
          [
            88.4790909,
            22.5915072
          ],
          [
            88.4789354,
            22.5919728
          ],
          [
            88.4795013,
            22.5921288
          ]
        ]
      },
      "properties": {
        "power": "substation",
        "osm_id": 1451376661
      }
    },
    {
      "type": "Feature",
      "geometry": {
        "type": "LineString",
        "coordinates": [
          [
            88.1046331,
            21.7271741
          ],
          [
            88.104566,
            21.726905
          ],
          [
            88.1049576,
            21.7268004
          ],
          [
            88.1049818,
            21.7269748
          ],
          [
            88.1046331,
            21.7271741
          ]
        ]
      },
      "properties": {
        "power": "substation",
        "osm_id": 1458018257
      }
    },
    {
      "type": "Feature",
      "geometry": {
        "type": "LineString",
        "coordinates": [
          [
            88.2165429,
            22.4945185
          ],
          [
            88.2166301,
            22.4943252
          ],
          [
            88.2168969,
            22.4944194
          ],
          [
            88.2168071,
            22.4946078
          ],
          [
            88.2165429,
            22.4945185
          ]
        ]
      },
      "properties": {
        "power": "substation",
        "osm_id": 1458018259
      }
    },
    {
      "type": "Feature",
      "geometry": {
        "type": "LineString",
        "coordinates": [
          [
            88.38218,
            22.4594051
          ],
          [
            88.3823973,
            22.4596009
          ],
          [
            88.3826601,
            22.4593506
          ],
          [
            88.3824536,
            22.4591399
          ],
          [
            88.38218,
            22.4594051
          ]
        ]
      },
      "properties": {
        "power": "substation",
        "osm_id": 1458018260
      }
    },
    {
      "type": "Feature",
      "geometry": {
        "type": "LineString",
        "coordinates": [
          [
            88.4513757,
            22.2679772
          ],
          [
            88.4516466,
            22.2674535
          ],
          [
            88.451786,
            22.2675006
          ],
          [
            88.4518182,
            22.2674485
          ],
          [
            88.4522742,
            22.2676769
          ],
          [
            88.4522366,
            22.2677265
          ],
          [
            88.4524593,
            22.267868
          ],
          [
            88.4520864,
            22.268347
          ],
          [
            88.4513757,
            22.2679772
          ]
        ]
      },
      "properties": {
        "power": "substation",
        "osm_id": 1458018261
      }
    },
    {
      "type": "Feature",
      "geometry": {
        "type": "LineString",
        "coordinates": [
          [
            88.2166851,
            22.5847515
          ],
          [
            88.2166555,
            22.5842784
          ],
          [
            88.2172912,
            22.5841571
          ],
          [
            88.2173878,
            22.5848728
          ],
          [
            88.2170498,
            22.5849397
          ],
          [
            88.2166851,
            22.5847515
          ]
        ]
      },
      "properties": {
        "power": "substation",
        "osm_id": 1458018262
      }
    },
    {
      "type": "Feature",
      "geometry": {
        "type": "LineString",
        "coordinates": [
          [
            88.2133538,
            22.562404
          ],
          [
            88.2136367,
            22.5622542
          ],
          [
            88.2135361,
            22.5620585
          ],
          [
            88.2132451,
            22.5622356
          ],
          [
            88.2133538,
            22.562404
          ]
        ]
      },
      "properties": {
        "power": "substation",
        "osm_id": 1467603819
      }
    },
    {
      "type": "Feature",
      "geometry": {
        "type": "LineString",
        "coordinates": [
          [
            88.2931522,
            22.5482601
          ],
          [
            88.293061,
            22.5477523
          ],
          [
            88.2942411,
            22.5474327
          ],
          [
            88.2944047,
            22.548
          ],
          [
            88.2931522,
            22.5482601
          ]
        ]
      },
      "properties": {
        "power": "substation",
        "osm_id": 1467603820
      }
    },
    {
      "type": "Feature",
      "geometry": {
        "type": "LineString",
        "coordinates": [
          [
            88.3728701,
            21.8476649
          ],
          [
            88.3728513,
            21.8468483
          ],
          [
            88.3734173,
            21.8468384
          ],
          [
            88.3733878,
            21.8476624
          ],
          [
            88.3728701,
            21.8476649
          ]
        ]
      },
      "properties": {
        "power": "substation",
        "osm_id": 1467621568
      }
    },
    {
      "type": "Feature",
      "geometry": {
        "type": "LineString",
        "coordinates": [
          [
            88.2180725,
            22.5968227
          ],
          [
            88.2184563,
            22.5967174
          ],
          [
            88.2184757,
            22.5965248
          ],
          [
            88.2184118,
            22.5963476
          ],
          [
            88.218562,
            22.5962757
          ],
          [
            88.2184034,
            22.5959496
          ],
          [
            88.21785,
            22.5961345
          ],
          [
            88.2180725,
            22.5968227
          ]
        ]
      },
      "properties": {
        "name": "Jangalpur",
        "power": "substation",
        "substation": "transmission",
        "voltage": "220000",
        "osm_id": 1485374707
      }
    },
    {
      "type": "Feature",
      "geometry": {
        "type": "LineString",
        "coordinates": [
          [
            88.356388,
            22.5665125
          ],
          [
            88.3571724,
            22.5667965
          ],
          [
            88.3572964,
            22.5664773
          ],
          [
            88.3566244,
            22.5661584
          ],
          [
            88.356388,
            22.5665125
          ]
        ]
      },
      "properties": {
        "name": "Princep Street",
        "power": "substation",
        "substation": "transmission",
        "voltage": "220000",
        "osm_id": 1485624289
      }
    }
  ]
}